[{"OBJECT_NAME":"SAUDICOMSAT 4","OBJECT_ID":"2007-012L","EPOCH":"2026-03-09T21:03:47.196576","MEAN_MOTION":14.64379004,"ECCENTRICITY":0.00628756,"INCLINATION":98.3883,"RA_OF_ASC_NODE":39.4922,"ARG_OF_PERICENTER":207.7023,"MEAN_ANOMALY":152.0825,"EPHEMERIS_TYPE":0,"CLASSIFICATION_TYPE":"U","NORAD_CAT_ID":31127,"ELEMENT_SET_NO":999,"REV_AT_EPOCH":675,"BSTAR":0.00016117094,"MEAN_MOTION_DOT":8.23e-6,"MEAN_MOTION_DDOT":0},{"OBJECT_NAME":"FENGYUN 1C DEB","OBJECT_ID":"1999-025AKD","EPOCH":"2026-03-09T22:29:24.185472","MEAN_MOTION":14.55951591,"ECCENTRICITY":0.01160055,"INCLINATION":98.89,"RA_OF_ASC_NODE":59.9529,"ARG_OF_PERICENTER":11.2931,"MEAN_ANOMALY":349.0827,"EPHEMERIS_TYPE":0,"CLASSIFICATION_TYPE":"U","NORAD_CAT_ID":30539,"ELEMENT_SET_NO":999,"REV_AT_EPOCH":612,"BSTAR":0.00083831096,"MEAN_MOTION_DOT":3.979e-5,"MEAN_MOTION_DDOT":0}]
